{"epoch":1784710044,"count":18256,"objects":[{"id":"48779","name":"ONEWEB-0229","type":"PAYLOAD","l1":"1 48779U 21045N   26202.59178507  .00000184  00000-0  45501-3 0  9992","l2":"2 48779  87.8984 252.3373 0001994 100.0977 260.0378 13.15548067248935"},{"id":"48780","name":"ONEWEB-0228","type":"PAYLOAD","l1":"1 48780U 21045P   26202.16884140 -.00000112  00000-0 -33139-3 0  9991","l2":"2 48780  87.8988 252.4157 0002142  98.6021 261.5352 13.15549028248790"},{"id":"48781","name":"ONEWEB-0232","type":"PAYLOAD","l1":"1 48781U 21045Q   26202.21942576  .00000039  00000-0  69209-4 0  9990","l2":"2 48781  87.8992 252.4062 0002119  95.9945 264.1427 13.15547415249128"},{"id":"48782","name":"ONEWEB-0231","type":"PAYLOAD","l1":"1 48782U 21045R   26202.57752518  .00000096  00000-0  22065-3 0  9996","l2":"2 48782  87.8977 252.3459 0002202 101.2862 258.8516 13.15547896248865"},{"id":"48783","name":"ONEWEB-0234","type":"PAYLOAD","l1":"1 48783U 21045S   26202.53935995 -.00000083  00000-0 -25438-3 0  9990","l2":"2 48783  87.8991 252.3360 0002597  80.5968 279.5456 13.15547562248993"},{"id":"48784","name":"ONEWEB-0238","type":"PAYLOAD","l1":"1 48784U 21045T   26202.53961351 -.00000046  00000-0 -15639-3 0  9997","l2":"2 48784  87.8996 252.3326 0002264  87.0984 273.0405 13.15548558248890"},{"id":"48785","name":"ONEWEB-0240","type":"PAYLOAD","l1":"1 48785U 21045U   26202.56087189 -.00000070  00000-0 -22134-3 0  9994","l2":"2 48785  87.8987 252.3375 0002375  99.5273 260.6125 13.15549256248928"},{"id":"48786","name":"ONEWEB-0246","type":"PAYLOAD","l1":"1 48786U 21045V   26202.55533934 -.00000168  00000-0 -48021-3 0  9999","l2":"2 48786  87.8992 252.3425 0002074  99.3629 260.7736 13.15547150248795"},{"id":"48787","name":"ONEWEB-0210","type":"PAYLOAD","l1":"1 48787U 21045W   26202.14969954 -.00000018  00000-0 -82613-4 0  9990","l2":"2 48787  87.8989 252.4203 0002015 121.2165 238.9163 13.15548583248783"},{"id":"48788","name":"ONEWEB-0214","type":"PAYLOAD","l1":"1 48788U 21045X   26202.15840827 -.00000051  00000-0 -17017-3 0  9991","l2":"2 48788  87.8988 252.4157 0001745 102.0846 258.0480 13.15547454248751"},{"id":"48789","name":"ONEWEB-0221","type":"PAYLOAD","l1":"1 48789U 21045Y   26202.16554707 -.00000168  00000-0 -47944-3 0  9993","l2":"2 48789  87.8985 252.4224 0002170 100.8465 259.2909 13.15548446248841"},{"id":"48790","name":"ONEWEB-0213","type":"PAYLOAD","l1":"1 48790U 21045Z   26202.15445114  .00000003  00000-0 -24853-4 0  9997","l2":"2 48790  87.8990 252.4282 0002109 104.4565 255.6800 13.15549457248906"},{"id":"48791","name":"ONEWEB-0212","type":"PAYLOAD","l1":"1 48791U 21045AA  26202.58781744  .00000156  00000-0  38063-3 0  9992","l2":"2 48791  87.8985 252.3358 0002048  96.1129 264.0234 13.15547218248952"},{"id":"48792","name":"ONEWEB-0227","type":"PAYLOAD","l1":"1 48792U 21045AB  26202.58702661  .00000489  00000-0  12645-2 0  9990","l2":"2 48792  87.8951 252.3327 0002474 103.2112 256.9294 13.15551187248908"},{"id":"48793","name":"ONEWEB-0226","type":"PAYLOAD","l1":"1 48793U 21045AC  26202.42857834  .00000124  00000-0  29464-3 0  9991","l2":"2 48793  87.8984 252.3724 0002049 104.7090 255.4267 13.15546966248852"},{"id":"48794","name":"ONEWEB-0224","type":"PAYLOAD","l1":"1 48794U 21045AD  26202.16396038 -.00000070  00000-0 -22103-3 0  9992","l2":"2 48794  87.8976 252.4571 0002933  92.1602 267.9865 13.15549435248740"}]}