{"fetched_at":"2026-07-22T07:09:22.096Z","source":"https://celestrak.org/NORAD/elements/gp.php?GROUP=oneweb&FORMAT=JSON","constellation":"oneweb","records":[{"OBJECT_NAME":"ONEWEB-0229","OBJECT_ID":"2021-045N","EPOCH":"2026-07-21T14:12:10.230048","CLASSIFICATION_TYPE":"U","MEAN_MOTION":13.15548067,"ECCENTRICITY":0.00019941,"INCLINATION":87.8984,"RA_OF_ASC_NODE":252.3373,"ARG_OF_PERICENTER":100.0977,"MEAN_ANOMALY":260.0378,"EPHEMERIS_TYPE":0,"NORAD_CAT_ID":48779,"ELEMENT_SET_NO":999,"REV_AT_EPOCH":24893,"BSTAR":0.00045501055,"MEAN_MOTION_DOT":0.00000184,"MEAN_MOTION_DDOT":0},{"OBJECT_NAME":"ONEWEB-0228","OBJECT_ID":"2021-045P","EPOCH":"2026-07-21T04:03:07.896960","CLASSIFICATION_TYPE":"U","MEAN_MOTION":13.15549028,"ECCENTRICITY":0.00021423,"INCLINATION":87.8988,"RA_OF_ASC_NODE":252.4157,"ARG_OF_PERICENTER":98.6021,"MEAN_ANOMALY":261.5352,"EPHEMERIS_TYPE":0,"NORAD_CAT_ID":48780,"ELEMENT_SET_NO":999,"REV_AT_EPOCH":24879,"BSTAR":-0.00033138544,"MEAN_MOTION_DOT":-0.00000112,"MEAN_MOTION_DDOT":0},{"OBJECT_NAME":"ONEWEB-0232","OBJECT_ID":"2021-045Q","EPOCH":"2026-07-21T05:15:58.385664","CLASSIFICATION_TYPE":"U","MEAN_MOTION":13.15547415,"ECCENTRICITY":0.00021195,"INCLINATION":87.8992,"RA_OF_ASC_NODE":252.4062,"ARG_OF_PERICENTER":95.9945,"MEAN_ANOMALY":264.1427,"EPHEMERIS_TYPE":0,"NORAD_CAT_ID":48781,"ELEMENT_SET_NO":999,"REV_AT_EPOCH":24912,"BSTAR":0.000069208502,"MEAN_MOTION_DOT":3.9e-7,"MEAN_MOTION_DDOT":0},{"OBJECT_NAME":"ONEWEB-0231","OBJECT_ID":"2021-045R","EPOCH":"2026-07-21T13:51:38.175552","CLASSIFICATION_TYPE":"U","MEAN_MOTION":13.15547896,"ECCENTRICITY":0.00022018,"INCLINATION":87.8977,"RA_OF_ASC_NODE":252.3459,"ARG_OF_PERICENTER":101.2862,"MEAN_ANOMALY":258.8516,"EPHEMERIS_TYPE":0,"NORAD_CAT_ID":48782,"ELEMENT_SET_NO":999,"REV_AT_EPOCH":24886,"BSTAR":0.00022064505,"MEAN_MOTION_DOT":9.6e-7,"MEAN_MOTION_DDOT":0},{"OBJECT_NAME":"ONEWEB-0234","OBJECT_ID":"2021-045S","EPOCH":"2026-07-21T12:56:40.699680","CLASSIFICATION_TYPE":"U","MEAN_MOTION":13.15547562,"ECCENTRICITY":0.00025973,"INCLINATION":87.8991,"RA_OF_ASC_NODE":252.336,"ARG_OF_PERICENTER":80.5968,"MEAN_ANOMALY":279.5456,"EPHEMERIS_TYPE":0,"NORAD_CAT_ID":48783,"ELEMENT_SET_NO":999,"REV_AT_EPOCH":24899,"BSTAR":-0.00025437969,"MEAN_MOTION_DOT":-8.3e-7,"MEAN_MOTION_DDOT":0},{"OBJECT_NAME":"ONEWEB-0238","OBJECT_ID":"2021-045T","EPOCH":"2026-07-21T12:57:02.607264","CLASSIFICATION_TYPE":"U","MEAN_MOTION":13.15548558,"ECCENTRICITY":0.00022641,"INCLINATION":87.8996,"RA_OF_ASC_NODE":252.3326,"ARG_OF_PERICENTER":87.0984,"MEAN_ANOMALY":273.0405,"EPHEMERIS_TYPE":0,"NORAD_CAT_ID":48784,"ELEMENT_SET_NO":999,"REV_AT_EPOCH":24889,"BSTAR":-0.00015639138,"MEAN_MOTION_DOT":-4.6e-7,"MEAN_MOTION_DDOT":0},{"OBJECT_NAME":"ONEWEB-0240","OBJECT_ID":"2021-045U","EPOCH":"2026-07-21T13:27:39.331296","CLASSIFICATION_TYPE":"U","MEAN_MOTION":13.15549256,"ECCENTRICITY":0.00023746,"INCLINATION":87.8987,"RA_OF_ASC_NODE":252.3375,"ARG_OF_PERICENTER":99.5273,"MEAN_ANOMALY":260.6125,"EPHEMERIS_TYPE":0,"NORAD_CAT_ID":48785,"ELEMENT_SET_NO":999,"REV_AT_EPOCH":24892,"BSTAR":-0.00022134345,"MEAN_MOTION_DOT":-7e-7,"MEAN_MOTION_DDOT":0},{"OBJECT_NAME":"ONEWEB-0246","OBJECT_ID":"2021-045V","EPOCH":"2026-07-21T13:19:41.318976","CLASSIFICATION_TYPE":"U","MEAN_MOTION":13.1554715,"ECCENTRICITY":0.00020741,"INCLINATION":87.8992,"RA_OF_ASC_NODE":252.3425,"ARG_OF_PERICENTER":99.3629,"MEAN_ANOMALY":260.7736,"EPHEMERIS_TYPE":0,"NORAD_CAT_ID":48786,"ELEMENT_SET_NO":999,"REV_AT_EPOCH":24879,"BSTAR":-0.00048020871,"MEAN_MOTION_DOT":-0.00000168,"MEAN_MOTION_DDOT":0},{"OBJECT_NAME":"ONEWEB-0210","OBJECT_ID":"2021-045W","EPOCH":"2026-07-21T03:35:34.040256","CLASSIFICATION_TYPE":"U","MEAN_MOTION":13.15548583,"ECCENTRICITY":0.00020153,"INCLINATION":87.8989,"RA_OF_ASC_NODE":252.4203,"ARG_OF_PERICENTER":121.2165,"MEAN_ANOMALY":238.9163,"EPHEMERIS_TYPE":0,"NORAD_CAT_ID":48787,"ELEMENT_SET_NO":999,"REV_AT_EPOCH":24878,"BSTAR":-0.000082612627,"MEAN_MOTION_DOT":-1.8e-7,"MEAN_MOTION_DDOT":0},{"OBJECT_NAME":"ONEWEB-0214","OBJECT_ID":"2021-045X","EPOCH":"2026-07-21T03:48:06.474528","CLASSIFICATION_TYPE":"U","MEAN_MOTION":13.15547454,"ECCENTRICITY":0.00017447,"INCLINATION":87.8988,"RA_OF_ASC_NODE":252.4157,"ARG_OF_PERICENTER":102.0846,"MEAN_ANOMALY":258.048,"EPHEMERIS_TYPE":0,"NORAD_CAT_ID":48788,"ELEMENT_SET_NO":999,"REV_AT_EPOCH":24875,"BSTAR":-0.00017016593,"MEAN_MOTION_DOT":-5.1e-7,"MEAN_MOTION_DDOT":0},{"OBJECT_NAME":"ONEWEB-0221","OBJECT_ID":"2021-045Y","EPOCH":"2026-07-21T03:58:23.266848","CLASSIFICATION_TYPE":"U","MEAN_MOTION":13.15548446,"ECCENTRICITY":0.00021699,"INCLINATION":87.8985,"RA_OF_ASC_NODE":252.4224,"ARG_OF_PERICENTER":100.8465,"MEAN_ANOMALY":259.2909,"EPHEMERIS_TYPE":0,"NORAD_CAT_ID":48789,"ELEMENT_SET_NO":999,"REV_AT_EPOCH":24884,"BSTAR":-0.00047943558,"MEAN_MOTION_DOT":-0.00000168,"MEAN_MOTION_DDOT":0},{"OBJECT_NAME":"ONEWEB-0213","OBJECT_ID":"2021-045Z","EPOCH":"2026-07-21T03:42:24.578496","CLASSIFICATION_TYPE":"U","MEAN_MOTION":13.15549457,"ECCENTRICITY":0.00021085,"INCLINATION":87.899,"RA_OF_ASC_NODE":252.4282,"ARG_OF_PERICENTER":104.4565,"MEAN_ANOMALY":255.68,"EPHEMERIS_TYPE":0,"NORAD_CAT_ID":48790,"ELEMENT_SET_NO":999,"REV_AT_EPOCH":24890,"BSTAR":-0.000024853376,"MEAN_MOTION_DOT":3e-8,"MEAN_MOTION_DDOT":0},{"OBJECT_NAME":"ONEWEB-0212","OBJECT_ID":"2021-045AA","EPOCH":"2026-07-21T14:06:27.426816","CLASSIFICATION_TYPE":"U","MEAN_MOTION":13.15547218,"ECCENTRICITY":0.00020477,"INCLINATION":87.8985,"RA_OF_ASC_NODE":252.3358,"ARG_OF_PERICENTER":96.1129,"MEAN_ANOMALY":264.0234,"EPHEMERIS_TYPE":0,"NORAD_CAT_ID":48791,"ELEMENT_SET_NO":999,"REV_AT_EPOCH":24895,"BSTAR":0.00038063222,"MEAN_MOTION_DOT":0.00000156,"MEAN_MOTION_DDOT":0},{"OBJECT_NAME":"ONEWEB-0227","OBJECT_ID":"2021-045AB","EPOCH":"2026-07-21T14:05:19.099104","CLASSIFICATION_TYPE":"U","MEAN_MOTION":13.15551187,"ECCENTRICITY":0.00024737,"INCLINATION":87.8951,"RA_OF_ASC_NODE":252.3327,"ARG_OF_PERICENTER":103.2112,"MEAN_ANOMALY":256.9294,"EPHEMERIS_TYPE":0,"NORAD_CAT_ID":48792,"ELEMENT_SET_NO":999,"REV_AT_EPOCH":24890,"BSTAR":0.0012644567,"MEAN_MOTION_DOT":0.00000489,"MEAN_MOTION_DDOT":0},{"OBJECT_NAME":"ONEWEB-0226","OBJECT_ID":"2021-045AC","EPOCH":"2026-07-21T10:17:09.168576","CLASSIFICATION_TYPE":"U","MEAN_MOTION":13.15546966,"ECCENTRICITY":0.00020492,"INCLINATION":87.8984,"RA_OF_ASC_NODE":252.3724,"ARG_OF_PERICENTER":104.709,"MEAN_ANOMALY":255.4267,"EPHEMERIS_TYPE":0,"NORAD_CAT_ID":48793,"ELEMENT_SET_NO":999,"REV_AT_EPOCH":24885,"BSTAR":0.00029463588,"MEAN_MOTION_DOT":0.00000124,"MEAN_MOTION_DDOT":0},{"OBJECT_NAME":"ONEWEB-0224","OBJECT_ID":"2021-045AD","EPOCH":"2026-07-21T03:56:06.176832","CLASSIFICATION_TYPE":"U","MEAN_MOTION":13.15549435,"ECCENTRICITY":0.00029325,"INCLINATION":87.8976,"RA_OF_ASC_NODE":252.4571,"ARG_OF_PERICENTER":92.1602,"MEAN_ANOMALY":267.9865,"EPHEMERIS_TYPE":0,"NORAD_CAT_ID":48794,"ELEMENT_SET_NO":999,"REV_AT_EPOCH":24874,"BSTAR":-0.00022103367,"MEAN_MOTION_DOT":-7e-7,"MEAN_MOTION_DDOT":0}]}
